[{"OBJECT_NAME":"STARLINK-5971","OBJECT_ID":"2023-083AT","EPOCH":"2026-03-09T22:00:01.999584","MEAN_MOTION":15.07520475,"ECCENTRICITY":0.00019136,"INCLINATION":43.0006,"RA_OF_ASC_NODE":67.5285,"ARG_OF_PERICENTER":276.0834,"MEAN_ANOMALY":121.2729,"EPHEMERIS_TYPE":0,"CLASSIFICATION_TYPE":"U","NORAD_CAT_ID":56917,"ELEMENT_SET_NO":999,"REV_AT_EPOCH":572,"BSTAR":0.0046083449,"MEAN_MOTION_DOT":0.00071685,"MEAN_MOTION_DDOT":0},{"OBJECT_NAME":"SS 2","OBJECT_ID":"1977-112E","EPOCH":"2026-03-09T21:50:48.413184","MEAN_MOTION":13.91112922,"ECCENTRICITY":0.05221989,"INCLINATION":63.3355,"RA_OF_ASC_NODE":261.535,"ARG_OF_PERICENTER":160.9398,"MEAN_ANOMALY":201.2029,"EPHEMERIS_TYPE":0,"CLASSIFICATION_TYPE":"U","NORAD_CAT_ID":10544,"ELEMENT_SET_NO":999,"REV_AT_EPOCH":33858,"BSTAR":0.00039726462,"MEAN_MOTION_DOT":1.41e-5,"MEAN_MOTION_DDOT":0}]
